{"type": "FeatureCollection", "features": [ {"type": "Feature", "properties": {"norad_id": 66464, "name": "STARLINK-35435", "group": "last-30-days", "lat": -39.74750567160572, "lon": -50.66531073177186, "alt_km": 446.9299655577124, "timestamp": "2025-12-13T15:35:10.875096+00:00", "meta": {"OBJECT_NAME": "STARLINK-35435", "OBJECT_ID": "2025-262J", "EPOCH": "2025-12-12T20:00:01.999872", "MEAN_MOTION": 15.407485, "ECCENTRICITY": 0.00017556, "INCLINATION": 43.0006, "RA_OF_ASC_NODE": 70.8597, "ARG_OF_PERICENTER": 284.6238, "MEAN_ANOMALY": 113.5178, "EPHEMERIS_TYPE": 0, "CLASSIFICATION_TYPE": "U", "NORAD_CAT_ID": 66464, "ELEMENT_SET_NO": 999, "REV_AT_EPOCH": 565, "BSTAR": -0.0035636912, "MEAN_MOTION_DOT": -0.00146585, "MEAN_MOTION_DDOT": 0}, "tle": {"line1": "1 66464U 25262J   25346.83335648 -.00146585  00000+0 -35637-2 0  9999", "line2": "2 66464  43.0006  70.8597 0001755 284.6238 113.5178 15.40748500  5654"}}, "geometry": {"type": "Point", "coordinates": [-50.66531073177186, -39.74750567160572]}}, {"type": "Feature", "properties": {"norad_id": 66465, "name": "STARLINK-35448", "group": "last-30-days", "lat": -40.67699299970346, "lon": -1.1955605849709205, "alt_km": 446.6315241979746, "timestamp": "2025-12-13T15:35:10.875107+00:00", "meta": {"OBJECT_NAME": "STARLINK-35448", "OBJECT_ID": "2025-262K", "EPOCH": "2025-12-12T20:00:01.999872", "MEAN_MOTION": 15.40717749, "ECCENTRICITY": 0.00013161, "INCLINATION": 43.0006, "RA_OF_ASC_NODE": 70.768, "ARG_OF_PERICENTER": 287.5445, "MEAN_ANOMALY": 147.8545, "EPHEMERIS_TYPE": 0, "CLASSIFICATION_TYPE": "U", "NORAD_CAT_ID": 66465, "ELEMENT_SET_NO": 999, "REV_AT_EPOCH": 565, "BSTAR": -0.001300699, "MEAN_MOTION_DOT": -0.00054283, "MEAN_MOTION_DDOT": 0}, "tle": {"line1": "1 66465U 25262K   25346.83335648 -.00054283  00000+0 -13007-2 0  9990", "line2": "2 66465  43.0006  70.7680 0001316 287.5445 147.8545 15.40717749  5651"}}, "geometry": {"type": "Point", "coordinates": [-1.1955605849709205, -40.67699299970346]}}, {"type": "Feature", "properties": {"norad_id": 66466, "name": "STARLINK-35388", "group": "last-30-days", "lat": -36.41438121612391, "lon": 13.699191177657816, "alt_km": 446.6263271723028, "timestamp": "2025-12-13T15:35:10.875119+00:00", "meta": {"OBJECT_NAME": "STARLINK-35388", "OBJECT_ID": "2025-262L", "EPOCH": "2025-12-12T20:00:01.999872", "MEAN_MOTION": 15.40796145, "ECCENTRICITY": 0.00015004, "INCLINATION": 43.0004, "RA_OF_ASC_NODE": 70.7366, "ARG_OF_PERICENTER": 266.9731, "MEAN_ANOMALY": 180.839, "EPHEMERIS_TYPE": 0, "CLASSIFICATION_TYPE": "U", "NORAD_CAT_ID": 66466, "ELEMENT_SET_NO": 999, "REV_AT_EPOCH": 565, "BSTAR": -0.0035656972, "MEAN_MOTION_DOT": -0.0014689, "MEAN_MOTION_DDOT": 0}, "tle": {"line1": "1 66466U 25262L   25346.83335648 -.00146890  00000+0 -35657-2 0  9992", "line2": "2 66466  43.0004  70.7366 0001500 266.9731 180.8390 15.40796145  5657"}}, "geometry": {"type": "Point", "coordinates": [13.699191177657816, -36.41438121612391]}}, {"type": "Feature", "properties": {"norad_id": 66467, "name": "STARLINK-35682", "group": "last-30-days", "lat": -42.79891291595285, "lon": -17.454982159364015, "alt_km": 446.150439003618, "timestamp": "2025-12-13T15:35:10.875132+00:00", "meta": {"OBJECT_NAME": "STARLINK-35682", "OBJECT_ID": "2025-262M", "EPOCH": "2025-12-12T20:00:01.999872", "MEAN_MOTION": 15.40654202, "ECCENTRICITY": 0.00017527, "INCLINATION": 43.0006, "RA_OF_ASC_NODE": 70.7988, "ARG_OF_PERICENTER": 251.2618, "MEAN_ANOMALY": 171.7155, "EPHEMERIS_TYPE": 0, "CLASSIFICATION_TYPE": "U", "NORAD_CAT_ID": 66467, "ELEMENT_SET_NO": 999, "REV_AT_EPOCH": 565, "BSTAR": 0.0013195533, "MEAN_MOTION_DOT": 0.00055133, "MEAN_MOTION_DDOT": 0}, "tle": {"line1": "1 66467U 25262M   25346.83335648  .00055133  00000+0  13196-2 0  9994", "line2": "2 66467  43.0006  70.7988 0001752 251.2618 171.7155 15.40654202  5655"}}, "geometry": {"type": "Point", "coordinates": [-17.454982159364015, -42.79891291595285]}}, {"type": "Feature", "properties": {"norad_id": 66468, "name": "STARLINK-35331", "group": "last-30-days", "lat": -30.44189205649607, "lon": 26.905382590666715, "alt_km": 445.58818612995856, "timestamp": "2025-12-13T15:35:10.875143+00:00", "meta": {"OBJECT_NAME": "STARLINK-35331", "OBJECT_ID": "2025-262N", "EPOCH": "2025-12-12T20:00:01.999872", "MEAN_MOTION": 15.40652515, "ECCENTRICITY": 0.00017487, "INCLINATION": 43.0006, "RA_OF_ASC_NODE": 70.7067, "ARG_OF_PERICENTER": 285.8883, "MEAN_ANOMALY": 174.4362, "EPHEMERIS_TYPE": 0, "CLASSIFICATION_TYPE": "U", "NORAD_CAT_ID": 66468, "ELEMENT_SET_NO": 999, "REV_AT_EPOCH": 565, "BSTAR": 0.0011032454, "MEAN_MOTION_DOT": 0.00045987, "MEAN_MOTION_DDOT": 0}, "tle": {"line1": "1 66468U 25262N   25346.83335648  .00045987  00000+0  11032-2 0  9998", "line2": "2 66468  43.0006  70.7067 0001748 285.8883 174.4362 15.40652515  5651"}}, "geometry": {"type": "Point", "coordinates": [26.905382590666715, -30.44189205649607]}}, {"type": "Feature", "properties": {"norad_id": 66469, "name": "STARLINK-35451", "group": "last-30-days", "lat": 34.41896241398728, "lon": 113.08119336093259, "alt_km": 410.22721505597747, "timestamp": "2025-12-13T15:35:10.875156+00:00", "meta": {"OBJECT_NAME": "STARLINK-35451", "OBJECT_ID": "2025-262P", "EPOCH": "2025-12-12T13:03:41.779584", "MEAN_MOTION": 15.50210236, "ECCENTRICITY": 0.00011033, "INCLINATION": 42.9999, "RA_OF_ASC_NODE": 72.2116, "ARG_OF_PERICENTER": 239.0773, "MEAN_ANOMALY": 120.9979, "EPHEMERIS_TYPE": 0, "CLASSIFICATION_TYPE": "U", "NORAD_CAT_ID": 66469, "ELEMENT_SET_NO": 999, "REV_AT_EPOCH": 553, "BSTAR": 0.0029076405, "MEAN_MOTION_DOT": 0.00171764, "MEAN_MOTION_DDOT": 0}, "tle": {"line1": "1 66469U 25262P   25346.54423356  .00171764  00000+0  29076-2 0  9991", "line2": "2 66469  42.9999  72.2116 0001103 239.0773 120.9979 15.50210236  5535"}}, "geometry": {"type": "Point", "coordinates": [113.08119336093259, 34.41896241398728]}}, {"type": "Feature", "properties": {"norad_id": 66470, "name": "STARLINK-35655", "group": "last-30-days", "lat": -23.367700901478052, "lon": 38.349612955527576, "alt_km": 445.2816821114993, "timestamp": "2025-12-13T15:35:10.875168+00:00", "meta": {"OBJECT_NAME": "STARLINK-35655", "OBJECT_ID": "2025-262Q", "EPOCH": "2025-12-12T20:00:01.999872", "MEAN_MOTION": 15.40655499, "ECCENTRICITY": 0.00016425, "INCLINATION": 43.0005, "RA_OF_ASC_NODE": 70.6768, "ARG_OF_PERICENTER": 283.0255, "MEAN_ANOMALY": 189.7237, "EPHEMERIS_TYPE": 0, "CLASSIFICATION_TYPE": "U", "NORAD_CAT_ID": 66470, "ELEMENT_SET_NO": 999, "REV_AT_EPOCH": 565, "BSTAR": 0.001122044, "MEAN_MOTION_DOT": 0.00046786, "MEAN_MOTION_DDOT": 0}, "tle": {"line1": "1 66470U 25262Q   25346.83335648  .00046786  00000+0  11220-2 0  9998", "line2": "2 66470  43.0005  70.6768 0001642 283.0255 189.7237 15.40655499  5650"}}, "geometry": {"type": "Point", "coordinates": [38.349612955527576, -23.367700901478052]}}, {"type": "Feature", "properties": {"norad_id": 66471, "name": "STARLINK-35569", "group": "last-30-days", "lat": -15.60280899596751, "lon": 48.50385111338663, "alt_km": 445.4200542410081, "timestamp": "2025-12-13T15:35:10.875179+00:00", "meta": {"OBJECT_NAME": "STARLINK-35569", "OBJECT_ID": "2025-262R", "EPOCH": "2025-12-12T20:00:01.999872", "MEAN_MOTION": 15.40743257, "ECCENTRICITY": 9.96e-05, "INCLINATION": 43.0005, "RA_OF_ASC_NODE": 70.6455, "ARG_OF_PERICENTER": 284.2191, "MEAN_ANOMALY": 200.9477, "EPHEMERIS_TYPE": 0, "CLASSIFICATION_TYPE": "U", "NORAD_CAT_ID": 66471, "ELEMENT_SET_NO": 999, "REV_AT_EPOCH": 565, "BSTAR": -0.0021233879, "MEAN_MOTION_DOT": -0.00088109, "MEAN_MOTION_DDOT": 0}, "tle": {"line1": "1 66471U 25262R   25346.83335648 -.00088109  00000+0 -21234-2 0  9992", "line2": "2 66471  43.0005  70.6455 0000996 284.2191 200.9477 15.40743257  5659"}}, "geometry": {"type": "Point", "coordinates": [48.50385111338663, -15.60280899596751]}}, {"type": "Feature", "properties": {"norad_id": 66472, "name": "STARLINK-35567", "group": "last-30-days", "lat": 0.7077472486557377, "lon": 66.64280846859293, "alt_km": 445.3061186977311, "timestamp": "2025-12-13T15:35:10.875190+00:00", "meta": {"OBJECT_NAME": "STARLINK-35567", "OBJECT_ID": "2025-262S", "EPOCH": "2025-12-12T20:00:01.999872", "MEAN_MOTION": 15.4103681, "ECCENTRICITY": 0.00011826, "INCLINATION": 43.0005, "RA_OF_ASC_NODE": 70.5857, "ARG_OF_PERICENTER": 296.5997, "MEAN_ANOMALY": 213.2933, "EPHEMERIS_TYPE": 0, "CLASSIFICATION_TYPE": "U", "NORAD_CAT_ID": 66472, "ELEMENT_SET_NO": 999, "REV_AT_EPOCH": 565, "BSTAR": -0.015250176, "MEAN_MOTION_DOT": -0.00596498, "MEAN_MOTION_DDOT": 0}, "tle": {"line1": "1 66472U 25262S   25346.83335648 -.00596498  00000+0 -15250-1 0  9998", "line2": "2 66472  43.0005  70.5857 0001182 296.5997 213.2933 15.41036810  5658"}}, "geometry": {"type": "Point", "coordinates": [66.64280846859293, 0.7077472486557377]}}, {"type": "Feature", "properties": {"norad_id": 66473, "name": "STARLINK-35568", "group": "last-30-days", "lat": 39.578507443931, "lon": 128.22410598120854, "alt_km": 408.6695183940392, "timestamp": "2025-12-13T15:35:10.875200+00:00", "meta": {"OBJECT_NAME": "STARLINK-35568", "OBJECT_ID": "2025-262T", "EPOCH": "2025-12-11T07:39:08.069760", "MEAN_MOTION": 15.50526439, "ECCENTRICITY": 0.00047596, "INCLINATION": 42.9998, "RA_OF_ASC_NODE": 79.3576, "ARG_OF_PERICENTER": 252.6139, "MEAN_ANOMALY": 107.4201, "EPHEMERIS_TYPE": 0, "CLASSIFICATION_TYPE": "U", "NORAD_CAT_ID": 66473, "ELEMENT_SET_NO": 999, "REV_AT_EPOCH": 534, "BSTAR": 0.0038259112, "MEAN_MOTION_DOT": 0.00230458, "MEAN_MOTION_DDOT": 0}, "tle": {"line1": "1 66473U 25262T   25345.31884340  .00230458  00000+0  38259-2 0  9993", "line2": "2 66473  42.9998  79.3576 0004759 252.6139 107.4201 15.50526439  5346"}}, "geometry": {"type": "Point", "coordinates": [128.22410598120854, 39.578507443931]}}]}